start=new Date('2023-05-03T00:00:00.000Z').valueOf();
sats=[{"CENTER_NAME":"EARTH","SEMIMAJOR_AXIS":"6917.916","TIME_SYSTEM":"UTC","TLE_LINE1":"1 51868U 22022S   23122.87888100  .00003371  00000-0  22982-3 0  9996","FILE":"3899277","ELEMENT_SET_NO":"999","REV_AT_EPOCH":"6583","INCLINATION":"53.2195","PERIAPSIS":"539.049","EPOCH":"2023-05-02T21:05:35.318400","APOAPSIS":"540.514","OBJECT_TYPE":"PAYLOAD","ECCENTRICITY":"0.00010590","TLE_LINE2":"2 51868  53.2195   5.9892 0001059  78.1756 281.9355 15.08828310 65838","SITE":"AFETR","EPHEMERIS_TYPE":"0","GP_ID":"231123895","ARG_OF_PERICENTER":"78.1756","COUNTRY_CODE":"US","DECAY_DATE":null,"LAUNCH_DATE":"2022-03-03","RA_OF_ASC_NODE":"5.9892","PERIOD":"95.438","MEAN_ANOMALY":"281.9355","MEAN_ELEMENT_THEORY":"SGP4","BSTAR":"0.00022982000000","REF_FRAME":"TEME","CLASSIFICATION_TYPE":"U","NORAD_CAT_ID":"51868","OBJECT_NAME":"STARLINK-3578","MEAN_MOTION_DDOT":"0.0000000000000","OBJECT_ID":"2022-022S","MEAN_MOTION":"15.08828310","MEAN_MOTION_DOT":"0.00003371","RCS_SIZE":"LARGE"},{"EPOCH":"2023-05-02T20:39:05.377824","APOAPSIS":"540.316","PERIAPSIS":"539.126","OBJECT_TYPE":"PAYLOAD","ECCENTRICITY":"0.00008600","SEMIMAJOR_AXIS":"6917.856","CENTER_NAME":"EARTH","TIME_SYSTEM":"UTC","FILE":"3899277","INCLINATION":"53.2186","REV_AT_EPOCH":"6583","ELEMENT_SET_NO":"999","TLE_LINE1":"1 51869U 22022T   23122.86047891  .00003768  00000-0  25464-3 0  9998","MEAN_MOTION":"15.08848114","OBJECT_ID":"2022-022T","OBJECT_NAME":"STARLINK-3588","MEAN_MOTION_DDOT":"0.0000000000000","RCS_SIZE":"LARGE","MEAN_MOTION_DOT":"0.00003768","GP_ID":"231125146","ARG_OF_PERICENTER":"80.2940","SITE":"AFETR","TLE_LINE2":"2 51869  53.2186   6.0720 0000860  80.2940 279.8149 15.08848114 65830","EPHEMERIS_TYPE":"0","REF_FRAME":"TEME","MEAN_ELEMENT_THEORY":"SGP4","BSTAR":"0.00025464000000","CLASSIFICATION_TYPE":"U","NORAD_CAT_ID":"51869","COUNTRY_CODE":"US","MEAN_ANOMALY":"279.8149","DECAY_DATE":null,"LAUNCH_DATE":"2022-03-03","PERIOD":"95.437","RA_OF_ASC_NODE":"6.0720"},{"COUNTRY_CODE":"US","MEAN_ANOMALY":"284.0366","DECAY_DATE":null,"RA_OF_ASC_NODE":"6.0403","LAUNCH_DATE":"2022-03-03","PERIOD":"95.437","REF_FRAME":"TEME","BSTAR":"0.00014649000000","MEAN_ELEMENT_THEORY":"SGP4","CLASSIFICATION_TYPE":"U","NORAD_CAT_ID":"51870","EPHEMERIS_TYPE":"0","TLE_LINE2":"2 51870  53.2188   6.0403 0001380  76.0780 284.0366 15.08842800 65885","SITE":"AFETR","ARG_OF_PERICENTER":"76.0780","GP_ID":"231124889","MEAN_MOTION_DOT":"0.00002044","RCS_SIZE":"LARGE","OBJECT_NAME":"STARLINK-3591","MEAN_MOTION_DDOT":"0.0000000000000","MEAN_MOTION":"15.08842800","OBJECT_ID":"2022-022U","TLE_LINE1":"1 51870U 22022U   23122.86784364  .00002044  00000-0  14649-3 0  9992","FILE":"3899277","REV_AT_EPOCH":"6588","INCLINATION":"53.2188","ELEMENT_SET_NO":"999","SEMIMAJOR_AXIS":"6917.872","CENTER_NAME":"EARTH","TIME_SYSTEM":"UTC","OBJECT_TYPE":"PAYLOAD","ECCENTRICITY":"0.00013800","PERIAPSIS":"538.782","EPOCH":"2023-05-02T20:49:41.690496","APOAPSIS":"540.691"},{"ECCENTRICITY":"0.00011620","OBJECT_TYPE":"PAYLOAD","APOAPSIS":"540.516","EPOCH":"2023-05-02T20:33:47.258208","PERIAPSIS":"538.908","REV_AT_EPOCH":"6594","INCLINATION":"53.2185","ELEMENT_SET_NO":"999","FILE":"3899277","TLE_LINE1":"1 51871U 22022V   23122.85679697  .00001093  00000-0  86737-4 0  9995","TIME_SYSTEM":"UTC","SEMIMAJOR_AXIS":"6917.847","CENTER_NAME":"EARTH","MEAN_MOTION_DOT":"0.00001093","RCS_SIZE":"LARGE","MEAN_MOTION":"15.08850824","OBJECT_ID":"2022-022V","MEAN_MOTION_DDOT":"0.0000000000000","OBJECT_NAME":"STARLINK-3567","NORAD_CAT_ID":"51871","CLASSIFICATION_TYPE":"U","REF_FRAME":"TEME","BSTAR":"0.00008673700000","MEAN_ELEMENT_THEORY":"SGP4","MEAN_ANOMALY":"268.4735","LAUNCH_DATE":"2022-03-03","DECAY_DATE":null,"PERIOD":"95.437","RA_OF_ASC_NODE":"6.0856","COUNTRY_CODE":"US","GP_ID":"231124146","ARG_OF_PERICENTER":"91.6390","TLE_LINE2":"2 51871  53.2185   6.0856 0001162  91.6390 268.4735 15.08850824 65941","EPHEMERIS_TYPE":"0","SITE":"AFETR"},{"MEAN_MOTION_DOT":"0.00001712","RCS_SIZE":"LARGE","OBJECT_NAME":"STARLINK-3554","MEAN_MOTION_DDOT":"0.0000000000000","OBJECT_ID":"2022-022W","MEAN_MOTION":"15.07208128","COUNTRY_CODE":"US","PERIOD":"95.541","DECAY_DATE":null,"LAUNCH_DATE":"2022-03-03","RA_OF_ASC_NODE":"5.3813","MEAN_ANOMALY":"286.6953","BSTAR":"0.00013102000000","MEAN_ELEMENT_THEORY":"SGP4","REF_FRAME":"TEME","NORAD_CAT_ID":"51872","CLASSIFICATION_TYPE":"U","TLE_LINE2":"2 51872  53.2187   5.3813 0001173  73.4167 286.6953 15.07208128 65847","EPHEMERIS_TYPE":"0","SITE":"AFETR","GP_ID":"231124396","ARG_OF_PERICENTER":"73.4167","OBJECT_TYPE":"PAYLOAD","ECCENTRICITY":"0.00011730","PERIAPSIS":"543.926","EPOCH":"2023-05-02T20:48:55.967616","APOAPSIS":"545.550","TLE_LINE1":"1 51872U 22022W   23122.86731444  .00001712  00000-0  13102-3 0  9999","FILE":"3899277","ELEMENT_SET_NO":"999","REV_AT_EPOCH":"6584","INCLINATION":"53.2187","CENTER_NAME":"EARTH","SEMIMAJOR_AXIS":"6922.873","TIME_SYSTEM":"UTC"},{"ARG_OF_PERICENTER":"110.9438","GP_ID":"231124646","SITE":"AFETR","TLE_LINE2":"2 51873  53.2180   6.1385 0001075 110.9438 249.1669 15.08843620 65833","EPHEMERIS_TYPE":"0","REF_FRAME":"TEME","MEAN_ELEMENT_THEORY":"SGP4","BSTAR":"0.00012447000000","NORAD_CAT_ID":"51873","CLASSIFICATION_TYPE":"U","COUNTRY_CODE":"US","MEAN_ANOMALY":"249.1669","RA_OF_ASC_NODE":"6.1385","DECAY_DATE":null,"LAUNCH_DATE":"2022-03-03","PERIOD":"95.437","MEAN_MOTION":"15.08843620","OBJECT_ID":"2022-022X","OBJECT_NAME":"STARLINK-3582","MEAN_MOTION_DDOT":"0.0000000000000","RCS_SIZE":"LARGE","MEAN_MOTION_DOT":"0.00001694","SEMIMAJOR_AXIS":"6917.869","CENTER_NAME":"EARTH","TIME_SYSTEM":"UTC","FILE":"3899277","REV_AT_EPOCH":"6583","INCLINATION":"53.2180","ELEMENT_SET_NO":"999","TLE_LINE1":"1 51873U 22022X   23122.84575848  .00001694  00000-0  12447-3 0  9992","EPOCH":"2023-05-02T20:17:53.532672","APOAPSIS":"540.478","PERIAPSIS":"538.991","OBJECT_TYPE":"PAYLOAD","ECCENTRICITY":"0.00010750"},{"MEAN_MOTION":"15.08847128","OBJECT_ID":"2022-022Y","MEAN_MOTION_DDOT":"0.0000000000000","OBJECT_NAME":"STARLINK-3574","RCS_SIZE":"LARGE","MEAN_MOTION_DOT":"0.00002756","GP_ID":"231125390","ARG_OF_PERICENTER":"106.8520","SITE":"AFETR","TLE_LINE2":"2 51874  53.2184   6.1048 0001287 106.8520 253.2614 15.08847128 65827","EPHEMERIS_TYPE":"0","CLASSIFICATION_TYPE":"U","NORAD_CAT_ID":"51874","REF_FRAME":"TEME","BSTAR":"0.00019112000000","MEAN_ELEMENT_THEORY":"SGP4","MEAN_ANOMALY":"253.2614","LAUNCH_DATE":"2022-03-03","DECAY_DATE":null,"PERIOD":"95.437","RA_OF_ASC_NODE":"6.1048","COUNTRY_CODE":"US","APOAPSIS":"540.614","EPOCH":"2023-05-02T20:28:29.346816","PERIAPSIS":"538.833","ECCENTRICITY":"0.00012870","OBJECT_TYPE":"PAYLOAD","TIME_SYSTEM":"UTC","SEMIMAJOR_AXIS":"6917.859","CENTER_NAME":"EARTH","REV_AT_EPOCH":"6582","INCLINATION":"53.2184","ELEMENT_SET_NO":"999","FILE":"3899277","TLE_LINE1":"1 51874U 22022Y   23122.85311744  .00002756  00000-0  19112-3 0  9993"},{"GP_ID":"231123646","ARG_OF_PERICENTER":"103.5069","TLE_LINE2":"2 51875  53.2186   5.8171 0001333 103.5069 256.6072 15.08840845 65843","EPHEMERIS_TYPE":"0","SITE":"AFETR","REF_FRAME":"TEME","BSTAR":"0.00001994000000","MEAN_ELEMENT_THEORY":"SGP4","NORAD_CAT_ID":"51875","CLASSIFICATION_TYPE":"U","COUNTRY_CODE":"US","MEAN_ANOMALY":"256.6072","DECAY_DATE":null,"LAUNCH_DATE":"2022-03-03","PERIOD":"95.438","RA_OF_ASC_NODE":"5.8171","MEAN_MOTION":"15.08840845","OBJECT_ID":"2022-022Z","OBJECT_NAME":"STARLINK-3585","MEAN_MOTION_DDOT":"0.0000000000000","RCS_SIZE":"LARGE","MEAN_MOTION_DOT":"0.00000029","SEMIMAJOR_AXIS":"6917.878","CENTER_NAME":"EARTH","TIME_SYSTEM":"UTC","FILE":"3899277","INCLINATION":"53.2186","REV_AT_EPOCH":"6584","ELEMENT_SET_NO":"999","TLE_LINE1":"1 51875U 22022Z   23122.89726827  .00000029  00000-0  19940-4 0  9991","EPOCH":"2023-05-02T21:32:03.978528","APOAPSIS":"540.665","PERIAPSIS":"538.821","OBJECT_TYPE":"PAYLOAD","ECCENTRICITY":"0.00013330"},{"ECCENTRICITY":"0.00013680","OBJECT_TYPE":"PAYLOAD","APOAPSIS":"540.679","EPOCH":"2023-05-02T20:23:11.666976","PERIAPSIS":"538.787","ELEMENT_SET_NO":"999","REV_AT_EPOCH":"6583","INCLINATION":"53.2184","FILE":"3899277","TLE_LINE1":"1 51876U 22022AA  23122.84944059  .00002057  00000-0  14726-3 0  9995","TIME_SYSTEM":"UTC","CENTER_NAME":"EARTH","SEMIMAJOR_AXIS":"6917.868","RCS_SIZE":"LARGE","MEAN_MOTION_DOT":"0.00002057","OBJECT_ID":"2022-022AA","MEAN_MOTION":"15.08844051","MEAN_MOTION_DDOT":"0.0000000000000","OBJECT_NAME":"STARLINK-3583","CLASSIFICATION_TYPE":"U","NORAD_CAT_ID":"51876","MEAN_ELEMENT_THEORY":"SGP4","BSTAR":"0.00014726000000","REF_FRAME":"TEME","LAUNCH_DATE":"2022-03-03","DECAY_DATE":null,"RA_OF_ASC_NODE":"6.1258","PERIOD":"95.437","MEAN_ANOMALY":"249.6651","COUNTRY_CODE":"US","GP_ID":"231123896","ARG_OF_PERICENTER":"110.4488","SITE":"AFETR","TLE_LINE2":"2 51876  53.2184   6.1258 0001368 110.4488 249.6651 15.08844051 65839","EPHEMERIS_TYPE":"0"},{"FILE":"3899277","ELEMENT_SET_NO":"999","REV_AT_EPOCH":"6597","INCLINATION":"53.2170","TLE_LINE1":"1 51877U 22022AB  23122.89819929  .00006809  00000-0  44534-3 0  9997","CENTER_NAME":"EARTH","SEMIMAJOR_AXIS":"6917.841","TIME_SYSTEM":"UTC","OBJECT_TYPE":"PAYLOAD","ECCENTRICITY":"0.00009160","EPOCH":"2023-05-02T21:33:24.418656","APOAPSIS":"540.340","PERIAPSIS":"539.072","BSTAR":"0.00044534000000","MEAN_ELEMENT_THEORY":"SGP4","REF_FRAME":"TEME","CLASSIFICATION_TYPE":"U","NORAD_CAT_ID":"51877","COUNTRY_CODE":"US","PERIOD":"95.437","DECAY_DATE":null,"LAUNCH_DATE":"2022-03-03","RA_OF_ASC_NODE":"355.9015","MEAN_ANOMALY":"263.7396","GP_ID":"231125147","ARG_OF_PERICENTER":"96.3701","TLE_LINE2":"2 51877  53.2170 355.9015 0000916  96.3701 263.7396 15.08852917 65977","EPHEMERIS_TYPE":"0","SITE":"AFETR","MEAN_MOTION_DOT":"0.00006809","RCS_SIZE":"LARGE","OBJECT_ID":"2022-022AB","MEAN_MOTION":"15.08852917","OBJECT_NAME":"STARLINK-3556","MEAN_MOTION_DDOT":"0.0000000000000"}];
